COMMENT,ORIGINATOR,NORAD_CAT_ID,OBJECT_NAME,OBJECT_TYPE,CLASSIFICATION_TYPE,INTLDES,EPOCH,EPOCH_MICROSECONDS,MEAN_MOTION,ECCENTRICITY,INCLINATION,RA_OF_ASC_NODE,ARG_OF_PERICENTER,MEAN_ANOMALY,EPHEMERIS_TYPE,ELEMENT_SET_NO,REV_AT_EPOCH,BSTAR,MEAN_MOTION_DOT,MEAN_MOTION_DDOT,FILE,TLE_LINE0,TLE_LINE1,TLE_LINE2,OBJECT_ID,OBJECT_NUMBER,SEMIMAJOR_AXIS,PERIOD,APOGEE,PERIGEE,DECAYED
"GENERATED VIA SPACETRACK.ORG API","18 SPCS","55100","SPACEBEE-158","PAYLOAD","U","23001CV","2024-05-02 04:11:10","15008","15.42688155","0.0008336","97.4246","188.6708","303.5259","56.5192","0","999","7398","0.0012891","0.00056536","0","4304727","0 SPACEBEE-158","1 55100U 23001CV  24123.17442147  .00056536  00000-0  12891-2 0  9997","2 55100  97.4246 188.6708 0008336 303.5259  56.5192 15.42688155 73980","2023-001CV","55100","6816.316","93.344","443.864","432.499","0"
"GENERATED VIA SPACETRACK.ORG API","18 SPCS","55100","SPACEBEE-158","PAYLOAD","U","23001CV","2024-05-02 10:24:46","892448","15.42712119","0.0008351","97.4247","188.9356","302.3672","57.6767","0","999","7402","0.0013299","0.00058388","0","4305180","0 SPACEBEE-158","1 55100U 23001CV  24123.43387607  .00058388  00000-0  13299-2 0  9995","2 55100  97.4247 188.9356 0008351 302.3672  57.6767 15.42712119 74020","2023-001CV","55100","6816.246","93.342","443.803","432.419","0"
"GENERATED VIA SPACETRACK.ORG API","18 SPCS","55100","SPACEBEE-158","PAYLOAD","U","23001CV","2024-05-03 03:32:10","883616","15.42807406","0.0008423","97.4248","189.6621","298.6016","61.4384","0","999","7413","0.0011616","0.00051105","0","4306126","0 SPACEBEE-158","1 55100U 23001CV  24124.14734819  .00051105  00000-0  11616-2 0  9996","2 55100  97.4248 189.6621 0008423 298.6016  61.4384 15.42807406 74137","2023-001CV","55100","6815.965","93.336","443.571","432.089","0"
"GENERATED VIA SPACETRACK.ORG API","18 SPCS","55100","SPACEBEE-158","PAYLOAD","U","23001CV","2024-05-03 15:59:20","343552","15.42873754","0.0008424","97.425","190.1915","297.1786","62.8602","0","999","7421","0.00099265","0.00043715","0","4306308","0 SPACEBEE-158","1 55100U 23001CV  24124.66620768  .00043715  00000-0  99265-3 0  9995","2 55100  97.4250 190.1915 0008424 297.1786  62.8602 15.42873754 74218","2023-001CV","55100","6815.770","93.332","443.376","431.893","0"
"GENERATED VIA SPACETRACK.ORG API","18 SPCS","55100","SPACEBEE-158","PAYLOAD","U","23001CV","2024-05-03 15:59:20","343552","15.42873754","0.0008424","97.425","190.1915","297.1786","62.8602","0","999","7421","0.00099265","0.00043715","0","4306422","0 SPACEBEE-158","1 55100U 23001CV  24124.66620768  .00043715  00000-0  99265-3 0  9995","2 55100  97.4250 190.1915 0008424 297.1786  62.8602 15.42873754 74218","2023-001CV","55100","6815.770","93.332","443.376","431.893","0"
"GENERATED VIA SPACETRACK.ORG API","18 SPCS","55100","SPACEBEE-158","PAYLOAD","U","23001CV","2024-05-04 16:53:34","554624","15.42975365","0.0008443","97.4251","191.2491","292.8182","67.2173","0","999","7437","0.001114","0.00049272","0","4307337","0 SPACEBEE-158","1 55100U 23001CV  24125.70387216  .00049272  00000-0  11140-2 0  9998","2 55100  97.4251 191.2491 0008443 292.8182  67.2173 15.42975365 74373","2023-001CV","55100","6815.471","93.326","443.090","431.581","0"
"GENERATED VIA SPACETRACK.ORG API","18 SPCS","55100","SPACEBEE-158","PAYLOAD","U","23001CV","2024-05-05 10:00:48","471552","15.43048662","0.0008515","97.425","191.9762","289.6291","70.4037","0","999","7448","0.0013226","0.00058731","0","4307968","0 SPACEBEE-158","1 55100U 23001CV  24126.41722768  .00058731  00000-0  13226-2 0  9999","2 55100  97.4250 191.9762 0008515 289.6291  70.4037 15.43048662 74484","2023-001CV","55100","6815.255","93.322","442.923","431.317","0"
"GENERATED VIA SPACETRACK.ORG API","18 SPCS","55100","SPACEBEE-158","PAYLOAD","U","23001CV","2024-05-05 16:14:20","122656","15.43075562","0.000855","97.4249","192.2407","288.8002","71.2318","0","999","7452","0.001256","0.00055799","0","4308260","0 SPACEBEE-158","1 55100U 23001CV  24126.67662179  .00055799  00000-0  12560-2 0  9997","2 55100  97.4249 192.2407 0008550 288.8002  71.2318 15.43075562 74527","2023-001CV","55100","6815.176","93.320","442.868","431.214","0"
"GENERATED VIA SPACETRACK.ORG API","18 SPCS","55100","SPACEBEE-158","PAYLOAD","U","23001CV","2024-05-06 03:07:59","444832","15.43130146","0.0008574","97.4247","192.7029","287.0127","73.018","0","999","7459","0.0013662","0.00060853","0","4308482","0 SPACEBEE-158","1 55100U 23001CV  24127.13054913  .00060853  00000-0  13662-2 0  9991","2 55100  97.4247 192.7029 0008574 287.0127  73.0180 15.43130146 74599","2023-001CV","55100","6815.015","93.317","442.723","431.037","0"
"GENERATED VIA SPACETRACK.ORG API","18 SPCS","55100","SPACEBEE-158","PAYLOAD","U","23001CV","2024-05-06 10:54:52","315488","15.43178881","0.0008569","97.4247","193.0336","285.6213","74.4089","0","999","7464","0.0016384","0.0007323","0","4309203","0 SPACEBEE-158","1 55100U 23001CV  24127.45477217  .00073230  00000-0  16384-2 0  9999","2 55100  97.4247 193.0336 0008569 285.6213  74.4089 15.43178881 74645","2023-001CV","55100","6814.871","93.314","442.576","430.897","0"
"GENERATED VIA SPACETRACK.ORG API","18 SPCS","55100","SPACEBEE-158","PAYLOAD","U","23001CV","2024-05-06 21:48:29","105280","15.4323206","0.0008591","97.4245","193.4961","283.6201","76.409","0","999","7471","0.0015269","0.0006832","0","4309210","0 SPACEBEE-158","1 55100U 23001CV  24127.90867020  .00068320  00000-0  15269-2 0  9999","2 55100  97.4245 193.4961 0008591 283.6201  76.4090 15.43232060 74713","2023-001CV","55100","6814.715","93.311","442.434","430.725","0"
"GENERATED VIA SPACETRACK.ORG API","18 SPCS","55100","SPACEBEE-158","PAYLOAD","U","23001CV","2024-05-07 04:01:58","27008","15.43272159","0.0008596","97.4245","193.7607","282.2272","77.8013","0","999","7475","0.0018656","0.00083772","0","4309419","0 SPACEBEE-158","1 55100U 23001CV  24128.16803272  .00083772  00000-0  18656-2 0  9998","2 55100  97.4245 193.7607 0008596 282.2272  77.8013 15.43272159 74758","2023-001CV","55100","6814.597","93.308","442.320","430.604","0"
"GENERATED VIA SPACETRACK.ORG API","18 SPCS","55100","SPACEBEE-158","PAYLOAD","U","23001CV","2024-05-07 10:15:26","365536","15.43307236","0.0008637","97.4243","194.0256","281.2729","78.7548","0","999","7479","0.002019","0.00090857","0","4309871","0 SPACEBEE-158","1 55100U 23001CV  24128.42738849  .00090857  00000-0  20190-2 0  9992","2 55100  97.4243 194.0256 0008637 281.2729  78.7548 15.43307236 74794","2023-001CV","55100","6814.493","93.306","442.244","430.473","0"
"GENERATED VIA SPACETRACK.ORG API","18 SPCS","55100","SPACEBEE-158","PAYLOAD","U","23001CV","2024-05-07 16:28:54","380928","15.43325964","0.0008697","97.4241","194.2901","280.562","79.4648","0","999","7483","0.0012675","0.00056796","0","4310092","0 SPACEBEE-158","1 55100U 23001CV  24128.68674052  .00056796  00000-0  12675-2 0  9998","2 55100  97.4241 194.2901 0008697 280.5620  79.4648 15.43325964 74831","2023-001CV","55100","6814.438","93.305","442.230","430.377","0"
"GENERATED VIA SPACETRACK.ORG API","18 SPCS","55100","SPACEBEE-158","PAYLOAD","U","23001CV","2024-05-07 16:28:54","380928","15.43325964","0.0008697","97.4241","194.2901","280.562","79.4648","0","999","7483","0.0012675","0.00056796","0","4310193","0 SPACEBEE-158","1 55100U 23001CV  24128.68674052  .00056796  00000-0  12675-2 0  9998","2 55100  97.4241 194.2901 0008697 280.5620  79.4648 15.43325964 74831","2023-001CV","55100","6814.438","93.305","442.230","430.377","0"
"GENERATED VIA SPACETRACK.ORG API","18 SPCS","55100","SPACEBEE-158","PAYLOAD","U","23001CV","2024-05-08 03:22:27","259392","15.43383965","0.0008753","97.4241","194.7524","278.1859","81.8396","0","999","7490","0.0014074","0.0006325","0","4310854","0 SPACEBEE-158","1 55100U 23001CV  24129.14059328  .00063250  00000-0  14074-2 0  9991","2 55100  97.4241 194.7524 0008753 278.1859  81.8396 15.43383965 74907","2023-001CV","55100","6814.268","93.301","442.097","430.168","0"
"GENERATED VIA SPACETRACK.ORG API","18 SPCS","55100","SPACEBEE-158","PAYLOAD","U","23001CV","2024-05-08 17:22:41","750976","15.43458772","0.0008801","97.424","195.3479","276.5009","83.5237","0","999","7499","0.0015406","0.00069475","0","4311029","0 SPACEBEE-158","1 55100U 23001CV  24129.72409434  .00069475  00000-0  15406-2 0  9997","2 55100  97.4240 195.3479 0008801 276.5009  83.5237 15.43458772 74996","2023-001CV","55100","6814.047","93.297","441.909","429.915","0"
"GENERATED VIA SPACETRACK.ORG API","18 SPCS","55100","SPACEBEE-158","PAYLOAD","U","23001CV","2024-05-08 17:22:41","750976","15.43458772","0.0008801","97.424","195.3479","276.5009","83.5237","0","999","7499","0.0015406","0.00069475","0","4311154","0 SPACEBEE-158","1 55100U 23001CV  24129.72409434  .00069475  00000-0  15406-2 0  9997","2 55100  97.4240 195.3479 0008801 276.5009  83.5237 15.43458772 74996","2023-001CV","55100","6814.047","93.297","441.909","429.915","0"
"GENERATED VIA SPACETRACK.ORG API","18 SPCS","55100","SPACEBEE-158","PAYLOAD","U","23001CV","2024-05-09 04:16:11","176896","15.43522031","0.0008809","97.424","195.8104","274.091","85.933","0","999","7506","0.0013833","0.00062449","0","4311785","0 SPACEBEE-158","1 55100U 23001CV  24130.17790714  .00062449  00000-0  13833-2 0  9998","2 55100  97.4240 195.8104 0008809 274.0910  85.9330 15.43522031 75067","2023-001CV","55100","6813.861","93.293","441.729","429.724","0"
"GENERATED VIA SPACETRACK.ORG API","18 SPCS","55100","SPACEBEE-158","PAYLOAD","U","23001CV","2024-05-09 16:43:00","102144","15.4359255","0.0008941","97.4233","196.34","272.7368","87.2857","0","999","7514","0.0016876","0.00076528","0","4312075","0 SPACEBEE-158","1 55100U 23001CV  24130.69652896  .00076528  00000-0  16876-2 0  9996","2 55100  97.4233 196.3400 0008941 272.7368  87.2857 15.43592550 75144","2023-001CV","55100","6813.654","93.289","441.611","429.427","0"
